#aV2008 10 18  0  0   .00000000      96 DD+AD WGS84 FIT  NGA
## 1501 518400.00000000   900.00000000 54757  .0000000000000
+   31     2  3  4  5  6  7  8  9 10 11 12 13 14 15 16 17 18
+         19 20 21 22 23 24 25 26 27 28 29 30 31 32  0  0  0
+          0  0  0  0  0  0  0  0  0  0  0  0  0  0  0  0  0
+          0  0  0  0  0  0  0  0  0  0  0  0  0  0  0  0  0
+          0  0  0  0  0  0  0  0  0  0  0  0  0  0  0  0  0
++         0  0  0  0  0  0  0  0  0  0  0  0  0  0  0  0  0
++         0  0  0  0  0  0  0  0  0  0  0  0  0  0  0  0  0
++         0  0  0  0  0  0  0  0  0  0  0  0  0  0  0  0  0
++         0  0  0  0  0  0  0  0  0  0  0  0  0  0  0  0  0
++         0  0  0  0  0  0  0  0  0  0  0  0  0  0  0  0  0
%c cc cc ccc ccc cccc cccc cccc cccc ccccc ccccc ccccc ccccc
%c cc cc ccc ccc cccc cccc cccc cccc ccccc ccccc ccccc ccccc
%f  0.0000000  0.000000000  0.00000000000  0.000000000000000
%f  0.0000000  0.000000000  0.00000000000  0.000000000000000
%i    0    0    0    0      0      0      0      0         0
%i    0    0    0    0      0      0      0      0         0
/*      NGA, ST. LOUIS,MO.                                  
/*   EPHEMERIS COMPUTED FROM  3 DAYS OF DATA                
/* CCCCCCCCCCCCCCCCCCCCCCCCCCCCCCCCCCCCCCCCCCCCCCCCCCCCCCCCC
/* CCCCCCCCCCCCCCCCCCCCCCCCCCCCCCCCCCCCCCCCCCCCCCCCCCCCCCCCC
*  2008 10 18  4  0   .00000000                                                 
P  2  22331.505124 -12538.454878  -6393.492415    179.407576                    
V  2  -3937.005645   7856.354361 -30159.853291      -.027094                    
P  3 -13278.542963   9789.843972  20472.839010    298.426339                    
V  3  -8165.087972 -25602.983185   7207.405608       .053089                    
P  4  20677.300813   -757.507771 -16964.405837   -203.974974                    
V  4 -15424.131966  14724.258073 -19217.261702      -.116214                    
P  5  -1540.096292 -16361.675175 -21180.513822   -294.346026                    
V  5  25473.338918   6407.710109  -6772.014425      -.592748                    
P  6 -15164.335756   4973.132348  21418.318548    157.371937                    
V  6  -5634.069136 -26271.894674   2135.075570      -.046690                    
P  7   2647.323676  16355.985804  20710.390603     22.034491                    
V  7 -21020.244211  15945.232036  -9993.401797       .009417                    
P  8  14607.749040   6726.093212  21164.436331   -174.466443                    
V  8 -21531.653794  16069.884452   9239.371203      -.016050                    
P  9  11882.195299 -20953.410000 -11691.046046     20.347716                    
V  9  11755.346391  -7657.287559  27290.599203       .019095                    
P 10  20806.931739  -3658.411404  16158.264331     -6.163515                    
V 10  18448.641999   9421.988394 -21114.647616      -.004427                    
P 11  -7772.093816  22967.166067 -10616.249228     17.608829                    
V 11 -12066.609205   7588.062468  26022.886809      -.007969                    
P 12   4791.951914 -14330.381491 -21774.047080   -345.840719                    
V 12  25957.803754   9962.128248   -747.942445       .019858                    
P 13   5284.729010  25729.176575   3832.204165    274.432989                    
V 13  -1145.898942   5147.533337 -32018.828016       .010513                    
P 14 -14100.530673 -11985.019256 -18984.472077   -206.071664                    
V 14  -2099.997627 -24163.867454  16601.077359       .048235                    
P 15   8187.328222 -19431.116199  16168.360517   -195.860949                    
V 15   5431.435047  19856.851916  21173.620267      -.063710                    
P 16 -23869.885711   -775.235460  11902.493766    100.805433                    
V 16 -13080.080791  -7502.048111 -26642.484200      -.022258                    
P 17  14592.694710  13175.227236 -17895.462006     39.543165                    
V 17   1765.643214  22732.544347  17959.259645       .003777                    
P 18 -15894.900416 -17066.095759  13252.909036   -122.341414                    
V 18  15996.525591   4232.807823  24661.840087       .039576                    
P 19  -8892.410614  19915.477155  15079.620875     35.675720                    
V 19  -3901.590320 -18847.789309  22904.844031       .000069                    
P 20   -801.912122  16044.746792 -21269.986589    101.590970                    
V 20 -25409.751964  -8527.239839  -5465.738706      -.010630                    
P 21  -8586.639948 -13365.748116  21471.494675     46.243775                    
V 21  21534.936178 -16124.236122  -2057.557791      -.015401                    
P 22 -23776.254453 -11768.515680   2023.279715    210.293411                    
V 22   3484.767666  -2106.095732  31176.156227      -.002271                    
P 23   -300.148039  25685.417042  -6220.446814    377.079562                    
V 23  -3785.379203  -7386.873426 -30836.167736       .012916                    
P 24   7310.858378 -19827.074544  16408.291157    134.030395                    
V 24  17580.446469 -10629.629201 -20601.379683       .028706                    
P 25  -3346.324087  20158.030489  17418.441731    -53.574617                    
V 25 -16191.424095  13976.954104 -19517.578655       .352305                    
P 26  10904.049876 -14094.520350  19004.062114      4.036893                    
V 26   4052.395014  25020.439094  16331.785562       .049640                    
P 27   6572.658957  14372.790044  22014.873702    225.950632                    
V 27 -19689.164347  17491.834976  -5832.129387       .027818                    
P 28  23262.524116  12672.524025   4053.269112    -23.174358                    
V 28  -5153.580458    400.668021  31070.919187      -.002381                    
P 29  -4248.548168 -26228.232930    903.224257    -33.985106                    
V 29   2649.885761  -1392.702500 -31681.601078       .014124                    
P 30 -10710.807151 -17003.239111 -17770.758574    102.653770                    
V 30  21264.251159   5339.189257 -18211.876720       .020011                    
P 31 -21382.503591   4173.302251 -15058.417138    -33.120263                    
V 31  13874.730374 -13719.826479 -23083.437869      -.022305                    
P 32  -9150.380126  11992.327414 -21416.930350    316.120277                    
V 32 -25236.583392 -12641.981502   3824.839264      -.005560                    
EOF
